CCSDS_OMM_VERS = 2.0
CREATION_DATE  = 
ORIGINATOR     = 

OBJECT_NAME    = ALOS (DAICHI)
OBJECT_ID      = 2006-002A
CENTER_NAME    = EARTH
REF_FRAME      = TEME
TIME_SYSTEM    = UTC
MEAN_ELEMENT_THEORY = SGP/SGP4

EPOCH          = 2026-02-19T20:53:42.755136
MEAN_MOTION    = 14.69746820
ECCENTRICITY   = .00016434
INCLINATION    = 98.1190
RA_OF_ASC_NODE = 6.9199
ARG_OF_PERICENTER = 55.3285
MEAN_ANOMALY   = 304.8076

EPHEMERIS_TYPE = 0
CLASSIFICATION_TYPE = U
NORAD_CAT_ID   = 28931
ELEMENT_SET_NO = 999
REV_AT_EPOCH   = 7086
BSTAR          = .22404647E-3
MEAN_MOTION_DOT = .1286E-4
MEAN_MOTION_DDOT = 0

CCSDS_OMM_VERS = 2.0
CREATION_DATE  = 
ORIGINATOR     = 

OBJECT_NAME    = H-2A R/B
OBJECT_ID      = 2006-002B
CENTER_NAME    = EARTH
REF_FRAME      = TEME
TIME_SYSTEM    = UTC
MEAN_ELEMENT_THEORY = SGP/SGP4

EPOCH          = 2026-02-19T20:33:16.295040
MEAN_MOTION    = 15.16025592
ECCENTRICITY   = .00521139
INCLINATION    = 98.2383
RA_OF_ASC_NODE = 196.3568
ARG_OF_PERICENTER = 302.6040
MEAN_ANOMALY   = 57.0166

EPHEMERIS_TYPE = 0
CLASSIFICATION_TYPE = U
NORAD_CAT_ID   = 28932
ELEMENT_SET_NO = 999
REV_AT_EPOCH   = 9173
BSTAR          = .3730234E-3
MEAN_MOTION_DOT = .734E-4
MEAN_MOTION_DDOT = 0

CCSDS_OMM_VERS = 2.0
CREATION_DATE  = 
ORIGINATOR     = 

OBJECT_NAME    = RESURS-DK 1
OBJECT_ID      = 2006-021A
CENTER_NAME    = EARTH
REF_FRAME      = TEME
TIME_SYSTEM    = UTC
MEAN_ELEMENT_THEORY = SGP/SGP4

EPOCH          = 2026-02-19T19:31:26.455296
MEAN_MOTION    = 15.12631902
ECCENTRICITY   = .00032811
INCLINATION    = 69.9320
RA_OF_ASC_NODE = 283.2644
ARG_OF_PERICENTER = 184.7236
MEAN_ANOMALY   = 175.3900

EPHEMERIS_TYPE = 0
CLASSIFICATION_TYPE = U
NORAD_CAT_ID   = 29228
ELEMENT_SET_NO = 999
REV_AT_EPOCH   = 8482
BSTAR          = .11681559E-3
MEAN_MOTION_DOT = .1939E-4
MEAN_MOTION_DDOT = 0

CCSDS_OMM_VERS = 2.0
CREATION_DATE  = 
ORIGINATOR     = 

OBJECT_NAME    = CZ-4B R/B
OBJECT_ID      = 2006-046C
CENTER_NAME    = EARTH
REF_FRAME      = TEME
TIME_SYSTEM    = UTC
MEAN_ELEMENT_THEORY = SGP/SGP4

EPOCH          = 2026-02-19T14:23:04.761024
MEAN_MOTION    = 15.16700781
ECCENTRICITY   = .00325409
INCLINATION    = 97.5627
RA_OF_ASC_NODE = 95.5557
ARG_OF_PERICENTER = 332.7631
MEAN_ANOMALY   = 27.1893

EPHEMERIS_TYPE = 0
CLASSIFICATION_TYPE = U
NORAD_CAT_ID   = 29507
ELEMENT_SET_NO = 999
REV_AT_EPOCH   = 5730
BSTAR          = .24301472E-3
MEAN_MOTION_DOT = .4755E-4
MEAN_MOTION_DDOT = 0

CCSDS_OMM_VERS = 2.0
CREATION_DATE  = 
ORIGINATOR     = 

OBJECT_NAME    = CZ-2C R/B
OBJECT_ID      = 2007-010B
CENTER_NAME    = EARTH
REF_FRAME      = TEME
TIME_SYSTEM    = UTC
MEAN_ELEMENT_THEORY = SGP/SGP4

EPOCH          = 2026-02-19T21:38:51.638784
MEAN_MOTION    = 14.20239453
ECCENTRICITY   = .00585962
INCLINATION    = 98.3972
RA_OF_ASC_NODE = 165.0733
ARG_OF_PERICENTER = 347.0719
MEAN_ANOMALY   = 12.8953

EPHEMERIS_TYPE = 0
CLASSIFICATION_TYPE = U
NORAD_CAT_ID   = 31114
ELEMENT_SET_NO = 999
REV_AT_EPOCH   = 97719
BSTAR          = .63852453E-4
MEAN_MOTION_DOT = .97E-6
MEAN_MOTION_DDOT = 0

CCSDS_OMM_VERS = 2.0
CREATION_DATE  = 
ORIGINATOR     = 

OBJECT_NAME    = COSMO-SKYMED 1
OBJECT_ID      = 2007-023A
CENTER_NAME    = EARTH
REF_FRAME      = TEME
TIME_SYSTEM    = UTC
MEAN_ELEMENT_THEORY = SGP/SGP4

EPOCH          = 2026-02-19T22:40:51.644352
MEAN_MOTION    = 14.96389333
ECCENTRICITY   = .00014647
INCLINATION    = 97.8867
RA_OF_ASC_NODE = 241.8366
ARG_OF_PERICENTER = 90.2271
MEAN_ANOMALY   = 269.9118

EPHEMERIS_TYPE = 0
CLASSIFICATION_TYPE = U
NORAD_CAT_ID   = 31598
ELEMENT_SET_NO = 999
REV_AT_EPOCH   = 1225
BSTAR          = .32444944E-3
MEAN_MOTION_DOT = .3616E-4
MEAN_MOTION_DDOT = 0

CCSDS_OMM_VERS = 2.0
CREATION_DATE  = 
ORIGINATOR     = 

OBJECT_NAME    = COSMOS 2428
OBJECT_ID      = 2007-029A
CENTER_NAME    = EARTH
REF_FRAME      = TEME
TIME_SYSTEM    = UTC
MEAN_ELEMENT_THEORY = SGP/SGP4

EPOCH          = 2026-02-19T21:45:41.110848
MEAN_MOTION    = 14.12939784
ECCENTRICITY   = .00080695
INCLINATION    = 70.9399
RA_OF_ASC_NODE = 240.6710
ARG_OF_PERICENTER = 296.3748
MEAN_ANOMALY   = 63.6544

EPHEMERIS_TYPE = 0
CLASSIFICATION_TYPE = U
NORAD_CAT_ID   = 31792
ELEMENT_SET_NO = 999
REV_AT_EPOCH   = 96158
BSTAR          = .12967784E-3
MEAN_MOTION_DOT = .194E-5
MEAN_MOTION_DDOT = 0

CCSDS_OMM_VERS = 2.0
CREATION_DATE  = 
ORIGINATOR     = 

OBJECT_NAME    = SL-16 R/B
OBJECT_ID      = 2007-029B
CENTER_NAME    = EARTH
REF_FRAME      = TEME
TIME_SYSTEM    = UTC
MEAN_ELEMENT_THEORY = SGP/SGP4

EPOCH          = 2026-02-19T21:33:17.681184
MEAN_MOTION    = 14.14836719
ECCENTRICITY   = .00024039
INCLINATION    = 70.9747
RA_OF_ASC_NODE = 209.7812
ARG_OF_PERICENTER = 281.8562
MEAN_ANOMALY   = 188.1827

EPHEMERIS_TYPE = 0
CLASSIFICATION_TYPE = U
NORAD_CAT_ID   = 31793
ELEMENT_SET_NO = 999
REV_AT_EPOCH   = 96285
BSTAR          = -.855562E-6
MEAN_MOTION_DOT = -.5E-6
MEAN_MOTION_DDOT = 0

CCSDS_OMM_VERS = 2.0
CREATION_DATE  = 
ORIGINATOR     = 

OBJECT_NAME    = KORONAS-FOTON
OBJECT_ID      = 2009-003A
CENTER_NAME    = EARTH
REF_FRAME      = TEME
TIME_SYSTEM    = UTC
MEAN_ELEMENT_THEORY = SGP/SGP4

EPOCH          = 2026-02-19T02:06:44.549568
MEAN_MOTION    = 15.42820823
ECCENTRICITY   = .00095409
INCLINATION    = 82.4305
RA_OF_ASC_NODE = 295.2105
ARG_OF_PERICENTER = 216.9174
MEAN_ANOMALY   = 143.1417

EPHEMERIS_TYPE = 0
CLASSIFICATION_TYPE = U
NORAD_CAT_ID   = 33504
ELEMENT_SET_NO = 999
REV_AT_EPOCH   = 94287
BSTAR          = .26608198E-3
MEAN_MOTION_DOT = .11711E-3
MEAN_MOTION_DDOT = 0

CCSDS_OMM_VERS = 2.0
CREATION_DATE  = 
ORIGINATOR     = 

OBJECT_NAME    = CZ-2C R/B
OBJECT_ID      = 2011-030B
CENTER_NAME    = EARTH
REF_FRAME      = TEME
TIME_SYSTEM    = UTC
MEAN_ELEMENT_THEORY = SGP/SGP4

EPOCH          = 2026-02-19T20:14:36.790368
MEAN_MOTION    = 14.81146429
ECCENTRICITY   = .00539008
INCLINATION    = 97.8516
RA_OF_ASC_NODE = 8.4692
ARG_OF_PERICENTER = 49.4356
MEAN_ANOMALY   = 3.7014

EPHEMERIS_TYPE = 0
CLASSIFICATION_TYPE = U
NORAD_CAT_ID   = 37731
ELEMENT_SET_NO = 999
REV_AT_EPOCH   = 78745
BSTAR          = .19242856E-3
MEAN_MOTION_DOT = .1479E-4
MEAN_MOTION_DDOT = 0

CCSDS_OMM_VERS = 2.0
CREATION_DATE  = 
ORIGINATOR     = 

OBJECT_NAME    = H-2A R/B
OBJECT_ID      = 2012-025E
CENTER_NAME    = EARTH
REF_FRAME      = TEME
TIME_SYSTEM    = UTC
MEAN_ELEMENT_THEORY = SGP/SGP4

EPOCH          = 2026-02-19T20:37:17.582592
MEAN_MOTION    = 14.95004038
ECCENTRICITY   = .00451649
INCLINATION    = 98.4711
RA_OF_ASC_NODE = 16.4856
ARG_OF_PERICENTER = 13.3311
MEAN_ANOMALY   = 346.9089

EPHEMERIS_TYPE = 0
CLASSIFICATION_TYPE = U
NORAD_CAT_ID   = 38341
ELEMENT_SET_NO = 999
REV_AT_EPOCH   = 74555
BSTAR          = .34120935E-3
MEAN_MOTION_DOT = .3738E-4
MEAN_MOTION_DDOT = 0

CCSDS_OMM_VERS = 2.0
CREATION_DATE  = 
ORIGINATOR     = 

OBJECT_NAME    = SHIJIAN-16 (SJ-16)
OBJECT_ID      = 2013-057A
CENTER_NAME    = EARTH
REF_FRAME      = TEME
TIME_SYSTEM    = UTC
MEAN_ELEMENT_THEORY = SGP/SGP4

EPOCH          = 2026-02-19T22:19:29.534016
MEAN_MOTION    = 14.92265127
ECCENTRICITY   = .00163289
INCLINATION    = 74.9703
RA_OF_ASC_NODE = 218.7058
ARG_OF_PERICENTER = 157.5209
MEAN_ANOMALY   = 202.6698

EPHEMERIS_TYPE = 0
CLASSIFICATION_TYPE = U
NORAD_CAT_ID   = 39358
ELEMENT_SET_NO = 999
REV_AT_EPOCH   = 66885
BSTAR          = .46511812E-4
MEAN_MOTION_DOT = .446E-5
MEAN_MOTION_DDOT = 0

