ALOS (DAICHI)           
1 28931U 06002A   26050.87063374  .00001286  00000+0  22405-3 0  9994
2 28931  98.1190   6.9199 0001643  55.3285 304.8076 14.69746820 70865
H-2A R/B                
1 28932U 06002B   26050.85643860  .00007340  00000+0  37302-3 0  9996
2 28932  98.2383 196.3568 0052113 302.6040  57.0166 15.16025592 91735
RESURS-DK 1             
1 29228U 06021A   26050.81350064  .00001939  00000+0  11682-3 0  9994
2 29228  69.9320 283.2644 0003281 184.7236 175.3900 15.12631902 84825
CZ-4B R/B               
1 29507U 06046C   26050.59936066  .00004755  00000+0  24301-3 0  9999
2 29507  97.5627  95.5557 0032540 332.7631  27.1893 15.16700781 57307
CZ-2C R/B               
1 31114U 07010B   26050.90198656  .00000097  00000+0  63852-4 0  9998
2 31114  98.3972 165.0733 0058596 347.0719  12.8953 14.20239453977193
COSMO-SKYMED 1          
1 31598U 07023A   26050.94504218  .00003616  00000+0  32445-3 0  9990
2 31598  97.8867 241.8366 0001464  90.2271 269.9118 14.96389333 12254
COSMOS 2428             
1 31792U 07029A   26050.90672582  .00000194  00000+0  12968-3 0  9994
2 31792  70.9399 240.6710 0008069 296.3748  63.6544 14.12939784961588
SL-16 R/B               
1 31793U 07029B   26050.89812131 -.00000050  00000+0 -85556-6 0  9998
2 31793  70.9747 209.7812 0002403 281.8562 188.1827 14.14836719962858
KORONAS-FOTON           
1 33504U 09003A   26050.08801562  .00011711  00000+0  26608-3 0  9995
2 33504  82.4305 295.2105 0009540 216.9174 143.1417 15.42820823942877
CZ-2C R/B               
1 37731U 11030B   26050.84348137  .00001479  00000+0  19243-3 0  9999
2 37731  97.8516   8.4692 0053900  49.4356   3.7014 14.81146429787452
H-2A R/B                
1 38341U 12025E   26050.85923128  .00003738  00000+0  34121-3 0  9994
2 38341  98.4711  16.4856 0045164  13.3311 346.9089 14.95004038745552
SHIJIAN-16 (SJ-16)      
1 39358U 13057A   26050.93020294  .00000446  00000+0  46512-4 0  9991
2 39358  74.9703 218.7058 0016328 157.5209 202.6698 14.92265127668855
